{"type": "FeatureCollection", "features": [ {"type": "Feature", "properties": {"norad_id": 31716, "name": "FENGYUN 1C DEB", "group": "fengyun-1c-debris", "lat": 67.09807155438924, "lon": 76.90450167279714, "alt_km": 782.736419784359, "timestamp": "2025-12-02T10:50:47.557887+00:00", "meta": {"OBJECT_NAME": "FENGYUN 1C DEB", "OBJECT_ID": "1999-025CDP", "EPOCH": "2025-11-29T04:21:28.587168", "MEAN_MOTION": 14.03517485, "ECCENTRICITY": 0.01287272, "INCLINATION": 98.5539, "RA_OF_ASC_NODE": 232.9562, "ARG_OF_PERICENTER": 129.7206, "MEAN_ANOMALY": 26.8865, "EPHEMERIS_TYPE": 0, "CLASSIFICATION_TYPE": "U", "NORAD_CAT_ID": 31716, "ELEMENT_SET_NO": 999, "REV_AT_EPOCH": 93929, "BSTAR": 0.0015991138, "MEAN_MOTION_DOT": 2.658e-05, "MEAN_MOTION_DDOT": 0}, "tle": {"line1": "1 31716U 99025CDP 25333.18158087  .00002658  00000+0  15991-2 0  9994", "line2": "2 31716  98.5539 232.9562 0128727 129.7206  26.8865 14.03517485939297"}}, "geometry": {"type": "Point", "coordinates": [76.90450167279714, 67.09807155438924]}}, {"type": "Feature", "properties": {"norad_id": 31720, "name": "FENGYUN 1C DEB", "group": "fengyun-1c-debris", "lat": -76.7867070074727, "lon": 24.49924877400273, "alt_km": 680.5951145653335, "timestamp": "2025-12-02T10:50:47.557899+00:00", "meta": {"OBJECT_NAME": "FENGYUN 1C DEB", "OBJECT_ID": "1999-025CDT", "EPOCH": "2025-11-30T11:59:00.921408", "MEAN_MOTION": 14.7162257, "ECCENTRICITY": 0.00995203, "INCLINATION": 99.0458, "RA_OF_ASC_NODE": 245.0583, "ARG_OF_PERICENTER": 161.3467, "MEAN_ANOMALY": 199.1426, "EPHEMERIS_TYPE": 0, "CLASSIFICATION_TYPE": "U", "NORAD_CAT_ID": 31720, "ELEMENT_SET_NO": 999, "REV_AT_EPOCH": 98056, "BSTAR": 0.00091184179, "MEAN_MOTION_DOT": 6.07e-05, "MEAN_MOTION_DDOT": 0}, "tle": {"line1": "1 31720U 99025CDT 25334.49931622  .00006070  00000+0  91184-3 0  9999", "line2": "2 31720  99.0458 245.0583 0099520 161.3467 199.1426 14.71622570980565"}}, "geometry": {"type": "Point", "coordinates": [24.49924877400273, -76.7867070074727]}}, {"type": "Feature", "properties": {"norad_id": 31721, "name": "FENGYUN 1C DEB", "group": "fengyun-1c-debris", "lat": 6.914039092739554, "lon": -45.37302325687403, "alt_km": 1201.8419065475018, "timestamp": "2025-12-02T10:50:47.557909+00:00", "meta": {"OBJECT_NAME": "FENGYUN 1C DEB", "OBJECT_ID": "1999-025CDU", "EPOCH": "2025-11-30T04:44:06.878112", "MEAN_MOTION": 13.73759188, "ECCENTRICITY": 0.03171994, "INCLINATION": 99.7798, "RA_OF_ASC_NODE": 313.5168, "ARG_OF_PERICENTER": 215.959, "MEAN_ANOMALY": 165.1435, "EPHEMERIS_TYPE": 0, "CLASSIFICATION_TYPE": "U", "NORAD_CAT_ID": 31721, "ELEMENT_SET_NO": 999, "REV_AT_EPOCH": 67214, "BSTAR": 0.00043397022, "MEAN_MOTION_DOT": 5.36e-06, "MEAN_MOTION_DDOT": 0}, "tle": {"line1": "1 31721U 99025CDU 25334.19730183  .00000536  00000+0  43397-3 0  9990", "line2": "2 31721  99.7798 313.5168 0317199 215.9590 165.1435 13.73759188672140"}}, "geometry": {"type": "Point", "coordinates": [-45.37302325687403, 6.914039092739554]}}, {"type": "Feature", "properties": {"norad_id": 31724, "name": "FENGYUN 1C DEB", "group": "fengyun-1c-debris", "lat": -72.71535344166035, "lon": 9.472355580079947, "alt_km": 630.6366119742379, "timestamp": "2025-12-02T10:50:47.557921+00:00", "meta": {"OBJECT_NAME": "FENGYUN 1C DEB", "OBJECT_ID": "1999-025CDX", "EPOCH": "2025-12-01T23:34:50.464128", "MEAN_MOTION": 14.48743597, "ECCENTRICITY": 0.0152541, "INCLINATION": 97.8543, "RA_OF_ASC_NODE": 342.7009, "ARG_OF_PERICENTER": 275.6224, "MEAN_ANOMALY": 82.7593, "EPHEMERIS_TYPE": 0, "CLASSIFICATION_TYPE": "U", "NORAD_CAT_ID": 31724, "ELEMENT_SET_NO": 999, "REV_AT_EPOCH": 64336, "BSTAR": 0.0023508, "MEAN_MOTION_DOT": 0.00010244, "MEAN_MOTION_DDOT": 0}, "tle": {"line1": "1 31724U 99025CDX 25335.98252852  .00010244  00000+0  23508-2 0  9991", "line2": "2 31724  97.8543 342.7009 0152541 275.6224  82.7593 14.48743597643364"}}, "geometry": {"type": "Point", "coordinates": [9.472355580079947, -72.71535344166035]}}, {"type": "Feature", "properties": {"norad_id": 31725, "name": "FENGYUN 1C DEB", "group": "fengyun-1c-debris", "lat": -77.61203621519134, "lon": -32.19160306442406, "alt_km": 1373.1967009593145, "timestamp": "2025-12-02T10:50:47.557932+00:00", "meta": {"OBJECT_NAME": "FENGYUN 1C DEB", "OBJECT_ID": "1999-025CDY", "EPOCH": "2025-11-28T20:58:16.679424", "MEAN_MOTION": 12.79114283, "ECCENTRICITY": 0.0693901, "INCLINATION": 99.1815, "RA_OF_ASC_NODE": 192.2893, "ARG_OF_PERICENTER": 5.879, "MEAN_ANOMALY": 354.9948, "EPHEMERIS_TYPE": 0, "CLASSIFICATION_TYPE": "U", "NORAD_CAT_ID": 31725, "ELEMENT_SET_NO": 999, "REV_AT_EPOCH": 86304, "BSTAR": 0.0037169627, "MEAN_MOTION_DOT": 2.281e-05, "MEAN_MOTION_DDOT": 0}, "tle": {"line1": "1 31725U 99025CDY 25332.87380416  .00002281  00000+0  37170-2 0  9997", "line2": "2 31725  99.1815 192.2893 0693901   5.8790 354.9948 12.79114283863045"}}, "geometry": {"type": "Point", "coordinates": [-32.19160306442406, -77.61203621519134]}}, {"type": "Feature", "properties": {"norad_id": 31727, "name": "FENGYUN 1C DEB", "group": "fengyun-1c-debris", "lat": 16.717484552427447, "lon": 85.50279934389332, "alt_km": 746.6293308927743, "timestamp": "2025-12-02T10:50:47.557942+00:00", "meta": {"OBJECT_NAME": "FENGYUN 1C DEB", "OBJECT_ID": "1999-025CEA", "EPOCH": "2025-11-30T19:21:28.055808", "MEAN_MOTION": 14.36805066, "ECCENTRICITY": 0.0032175, "INCLINATION": 98.8656, "RA_OF_ASC_NODE": 86.496, "ARG_OF_PERICENTER": 16.8454, "MEAN_ANOMALY": 134.3074, "EPHEMERIS_TYPE": 0, "CLASSIFICATION_TYPE": "U", "NORAD_CAT_ID": 31727, "ELEMENT_SET_NO": 999, "REV_AT_EPOCH": 71497, "BSTAR": 0.0018792636, "MEAN_MOTION_DOT": 5.539e-05, "MEAN_MOTION_DDOT": 0}, "tle": {"line1": "1 31727U 99025CEA 25334.80657472  .00005539  00000+0  18793-2 0  9992", "line2": "2 31727  98.8656  86.4960 0032175  16.8454 134.3074 14.36805066714972"}}, "geometry": {"type": "Point", "coordinates": [85.50279934389332, 16.717484552427447]}}, {"type": "Feature", "properties": {"norad_id": 31731, "name": "FENGYUN 1C DEB", "group": "fengyun-1c-debris", "lat": 69.27139991965504, "lon": -1.9113570412124143, "alt_km": 746.8789168472313, "timestamp": "2025-12-02T10:50:47.557952+00:00", "meta": {"OBJECT_NAME": "FENGYUN 1C DEB", "OBJECT_ID": "1999-025CEE", "EPOCH": "2025-11-27T02:07:07.827456", "MEAN_MOTION": 14.40063792, "ECCENTRICITY": 0.00116613, "INCLINATION": 99.3084, "RA_OF_ASC_NODE": 17.9462, "ARG_OF_PERICENTER": 144.9647, "MEAN_ANOMALY": 215.2308, "EPHEMERIS_TYPE": 0, "CLASSIFICATION_TYPE": "U", "NORAD_CAT_ID": 31731, "ELEMENT_SET_NO": 999, "REV_AT_EPOCH": 95605, "BSTAR": 0.0018623031, "MEAN_MOTION_DOT": 5.831e-05, "MEAN_MOTION_DDOT": 0}, "tle": {"line1": "1 31731U 99025CEE 25331.08828504  .00005831  00000+0  18623-2 0  9997", "line2": "2 31731  99.3084  17.9462 0011661 144.9647 215.2308 14.40063792956051"}}, "geometry": {"type": "Point", "coordinates": [-1.9113570412124143, 69.27139991965504]}}, {"type": "Feature", "properties": {"norad_id": 31732, "name": "FENGYUN 1C DEB", "group": "fengyun-1c-debris", "lat": -50.224917786334615, "lon": 22.091077471267294, "alt_km": 834.8096896407105, "timestamp": "2025-12-02T10:50:47.557961+00:00", "meta": {"OBJECT_NAME": "FENGYUN 1C DEB", "OBJECT_ID": "1999-025CEF", "EPOCH": "2025-11-30T13:10:34.039776", "MEAN_MOTION": 14.12230042, "ECCENTRICITY": 0.0039396, "INCLINATION": 98.5746, "RA_OF_ASC_NODE": 9.8282, "ARG_OF_PERICENTER": 281.0233, "MEAN_ANOMALY": 78.651, "EPHEMERIS_TYPE": 0, "CLASSIFICATION_TYPE": "U", "NORAD_CAT_ID": 31732, "ELEMENT_SET_NO": 999, "REV_AT_EPOCH": 64158, "BSTAR": 0.00035101, "MEAN_MOTION_DOT": 6.08e-06, "MEAN_MOTION_DDOT": 0}, "tle": {"line1": "1 31732U 99025CEF 25334.54900509  .00000608  00000+0  35101-3 0  9996", "line2": "2 31732  98.5746   9.8282 0039396 281.0233  78.6510 14.12230042641585"}}, "geometry": {"type": "Point", "coordinates": [22.091077471267294, -50.224917786334615]}}, {"type": "Feature", "properties": {"norad_id": 31734, "name": "FENGYUN 1C DEB", "group": "fengyun-1c-debris", "lat": -47.581355403333134, "lon": -21.736382627454226, "alt_km": 795.2681054243385, "timestamp": "2025-12-02T10:50:47.557973+00:00", "meta": {"OBJECT_NAME": "FENGYUN 1C DEB", "OBJECT_ID": "1999-025CEH", "EPOCH": "2025-11-18T05:55:42.528864", "MEAN_MOTION": 14.28933229, "ECCENTRICITY": 0.01048374, "INCLINATION": 98.4948, "RA_OF_ASC_NODE": 315.0096, "ARG_OF_PERICENTER": 79.0734, "MEAN_ANOMALY": 282.2222, "EPHEMERIS_TYPE": 0, "CLASSIFICATION_TYPE": "U", "NORAD_CAT_ID": 31734, "ELEMENT_SET_NO": 999, "REV_AT_EPOCH": 96101, "BSTAR": 0.00057477254, "MEAN_MOTION_DOT": 1.499e-05, "MEAN_MOTION_DDOT": 0}, "tle": {"line1": "1 31734U 99025CEH 25322.24702001  .00001499  00000+0  57477-3 0  9998", "line2": "2 31734  98.4948 315.0096 0104837  79.0734 282.2222 14.28933229961019"}}, "geometry": {"type": "Point", "coordinates": [-21.736382627454226, -47.581355403333134]}}, {"type": "Feature", "properties": {"norad_id": 31735, "name": "FENGYUN 1C DEB", "group": "fengyun-1c-debris", "lat": 76.77199598373986, "lon": 39.75673773623376, "alt_km": 766.4637098970234, "timestamp": "2025-12-02T10:50:47.557983+00:00", "meta": {"OBJECT_NAME": "FENGYUN 1C DEB", "OBJECT_ID": "1999-025CEJ", "EPOCH": "2025-12-01T12:50:10.916448", "MEAN_MOTION": 14.42493626, "ECCENTRICITY": 0.0059047, "INCLINATION": 98.5805, "RA_OF_ASC_NODE": 78.7993, "ARG_OF_PERICENTER": 318.5234, "MEAN_ANOMALY": 41.1481, "EPHEMERIS_TYPE": 0, "CLASSIFICATION_TYPE": "U", "NORAD_CAT_ID": 31735, "ELEMENT_SET_NO": 999, "REV_AT_EPOCH": 96503, "BSTAR": 0.00044803506, "MEAN_MOTION_DOT": 1.469e-05, "MEAN_MOTION_DDOT": 0}, "tle": {"line1": "1 31735U 99025CEJ 25335.53484857  .00001469  00000+0  44804-3 0  9998", "line2": "2 31735  98.5805  78.7993 0059047 318.5234  41.1481 14.42493626965033"}}, "geometry": {"type": "Point", "coordinates": [39.75673773623376, 76.77199598373986]}}]}